ONEWEB-0273             
1 48991U 21060AA  25297.85259080 -.00000032  00000+0 -11689-3 0  9996
2 48991  87.8981 275.6609 0001980  90.3350 269.8008 13.16592775208624
ONEWEB-0274             
1 48992U 21060AB  25297.64994046  .00000061  00000+0  12497-3 0  9990
2 48992  87.8972 275.7293 0001506  90.2126 269.9177 13.16595467208639
ONEWEB-0275             
1 48993U 21060AC  25297.86684949  .00000073  00000+0  15797-3 0  9992
2 48993  87.8986 275.6517 0001824  86.9555 273.1785 13.16595868208596
ONEWEB-0276             
1 48994U 21060AD  25297.67210366 -.00000061  00000+0 -19366-3 0  9995
2 48994  87.8983 275.6894 0002087  87.4696 272.6674 13.16593901208582
ONEWEB-0277             
1 48995U 21060AE  25297.83679884  .00000025  00000+0  32265-4 0  9990
2 48995  87.8971 275.6858 0001766  93.9283 266.2050 13.16593387208593
ONEWEB-0278             
1 48996U 21060AF  25297.67524233  .00001923  00000+0  49950-2 0  9995
2 48996  87.8991 275.6844 0002430  82.6654 277.4753 13.16613434208700
ONEWEB-0279             
1 48997U 21060AG  25297.68317698 -.00000017  00000+0 -78971-4 0  9994
2 48997  87.8989 275.6794 0001808  95.7895 264.3442 13.16592067208632
ONEWEB-0280             
1 48998U 21060AH  25297.85023399 -.00000029  00000+0 -10934-3 0  9993
2 48998  87.8983 275.6541 0002295  87.9234 272.2160 13.16593304208593
ONEWEB-0281             
1 48999U 21060AJ  25297.70375823  .00000014  00000+0  40512-5 0  9999
2 48999  87.8982 275.6790 0001774  86.5865 273.5469 13.16592497208649
ONEWEB-0282             
1 49000U 21060AK  25297.50586780  .00000007  00000+0 -15786-4 0  9994
2 49000  87.8983 275.7295 0001997  90.6151 269.5208 13.16594023208593
ONEWEB-0283             
1 49001U 21060AL  25297.87475216 -.00000001  00000+0 -36256-4 0  9996
2 49001  87.8983 275.6566 0001879  91.2263 268.9083 13.16592896208651
ONEWEB-0284             
1 49002U 21060AM  25297.86843404  .00000059  00000+0  12153-3 0  9994
2 49002  87.8993 275.6434 0002257  83.5733 276.5655 13.16593925208636
ONEWEB-0285             
1 49075U 21075A   25297.79241709  .00000100  00000+0  24357-3 0  9998
2 49075  87.8968  37.4200 0001802 102.3250 257.8081 13.12444517204338
ONEWEB-0286             
1 49076U 21075B   25297.77430520 -.00000422  00000+0 -12085-2 0  9991
2 49076  87.8963  37.4592 0001570  96.7656 263.3651 13.12443096203689
ONEWEB-0287             
1 49077U 21075C   25297.84044942  .00000010  00000+0 -78296-5 0  9990
2 49077  87.9123  52.6625 0001589  84.6744 275.4569 13.17646168202635
ONEWEB-0288             
1 49078U 21075D   25297.82633031  .00000101  00000+0  24465-3 0  9999
2 49078  87.8970  37.4086 0001830  97.7796 262.3540 13.12443631204314
ONEWEB-0289             
1 49079U 21075E   25297.80321330  .00000063  00000+0  12801-3 0  9992
2 49079  87.9111  52.6903 0002110  98.2492 261.8878 13.17648787203200
