[{"OBJECT_NAME":"ONEWEB-0273","OBJECT_ID":"2021-060AA","EPOCH":"2025-10-24T20:27:43.845120","MEAN_MOTION":13.16592775,"ECCENTRICITY":0.000198,"INCLINATION":87.8981,"RA_OF_ASC_NODE":275.6609,"ARG_OF_PERICENTER":90.335,"MEAN_ANOMALY":269.8008,"EPHEMERIS_TYPE":0,"CLASSIFICATION_TYPE":"U","NORAD_CAT_ID":48991,"ELEMENT_SET_NO":999,"REV_AT_EPOCH":20862,"BSTAR":-0.00011689,"MEAN_MOTION_DOT":-3.2e-7,"MEAN_MOTION_DDOT":0},{"OBJECT_NAME":"ONEWEB-0274","OBJECT_ID":"2021-060AB","EPOCH":"2025-10-24T15:35:54.855744","MEAN_MOTION":13.16595467,"ECCENTRICITY":0.0001506,"INCLINATION":87.8972,"RA_OF_ASC_NODE":275.7293,"ARG_OF_PERICENTER":90.2126,"MEAN_ANOMALY":269.9177,"EPHEMERIS_TYPE":0,"CLASSIFICATION_TYPE":"U","NORAD_CAT_ID":48992,"ELEMENT_SET_NO":999,"REV_AT_EPOCH":20863,"BSTAR":0.00012497,"MEAN_MOTION_DOT":6.1e-7,"MEAN_MOTION_DDOT":0},{"OBJECT_NAME":"ONEWEB-0275","OBJECT_ID":"2021-060AC","EPOCH":"2025-10-24T20:48:15.795936","MEAN_MOTION":13.16595868,"ECCENTRICITY":0.0001824,"INCLINATION":87.8986,"RA_OF_ASC_NODE":275.6517,"ARG_OF_PERICENTER":86.9555,"MEAN_ANOMALY":273.1785,"EPHEMERIS_TYPE":0,"CLASSIFICATION_TYPE":"U","NORAD_CAT_ID":48993,"ELEMENT_SET_NO":999,"REV_AT_EPOCH":20859,"BSTAR":0.00015797,"MEAN_MOTION_DOT":7.3e-7,"MEAN_MOTION_DDOT":0},{"OBJECT_NAME":"ONEWEB-0276","OBJECT_ID":"2021-060AD","EPOCH":"2025-10-24T16:07:49.756224","MEAN_MOTION":13.16593901,"ECCENTRICITY":0.0002087,"INCLINATION":87.8983,"RA_OF_ASC_NODE":275.6894,"ARG_OF_PERICENTER":87.4696,"MEAN_ANOMALY":272.6674,"EPHEMERIS_TYPE":0,"CLASSIFICATION_TYPE":"U","NORAD_CAT_ID":48994,"ELEMENT_SET_NO":999,"REV_AT_EPOCH":20858,"BSTAR":-0.00019366,"MEAN_MOTION_DOT":-6.1e-7,"MEAN_MOTION_DDOT":0},{"OBJECT_NAME":"ONEWEB-0277","OBJECT_ID":"2021-060AE","EPOCH":"2025-10-24T20:04:59.419776","MEAN_MOTION":13.16593387,"ECCENTRICITY":0.0001766,"INCLINATION":87.8971,"RA_OF_ASC_NODE":275.6858,"ARG_OF_PERICENTER":93.9283,"MEAN_ANOMALY":266.205,"EPHEMERIS_TYPE":0,"CLASSIFICATION_TYPE":"U","NORAD_CAT_ID":48995,"ELEMENT_SET_NO":999,"REV_AT_EPOCH":20859,"BSTAR":3.2265e-5,"MEAN_MOTION_DOT":2.5e-7,"MEAN_MOTION_DDOT":0},{"OBJECT_NAME":"ONEWEB-0278","OBJECT_ID":"2021-060AF","EPOCH":"2025-10-24T16:12:20.937312","MEAN_MOTION":13.16613434,"ECCENTRICITY":0.000243,"INCLINATION":87.8991,"RA_OF_ASC_NODE":275.6844,"ARG_OF_PERICENTER":82.6654,"MEAN_ANOMALY":277.4753,"EPHEMERIS_TYPE":0,"CLASSIFICATION_TYPE":"U","NORAD_CAT_ID":48996,"ELEMENT_SET_NO":999,"REV_AT_EPOCH":20870,"BSTAR":0.004995,"MEAN_MOTION_DOT":1.923e-5,"MEAN_MOTION_DDOT":0},{"OBJECT_NAME":"ONEWEB-0279","OBJECT_ID":"2021-060AG","EPOCH":"2025-10-24T16:23:46.491072","MEAN_MOTION":13.16592067,"ECCENTRICITY":0.0001808,"INCLINATION":87.8989,"RA_OF_ASC_NODE":275.6794,"ARG_OF_PERICENTER":95.7895,"MEAN_ANOMALY":264.3442,"EPHEMERIS_TYPE":0,"CLASSIFICATION_TYPE":"U","NORAD_CAT_ID":48997,"ELEMENT_SET_NO":999,"REV_AT_EPOCH":20863,"BSTAR":-7.8971e-5,"MEAN_MOTION_DOT":-1.7e-7,"MEAN_MOTION_DDOT":0},{"OBJECT_NAME":"ONEWEB-0280","OBJECT_ID":"2021-060AH","EPOCH":"2025-10-24T20:24:20.216736","MEAN_MOTION":13.16593304,"ECCENTRICITY":0.0002295,"INCLINATION":87.8983,"RA_OF_ASC_NODE":275.6541,"ARG_OF_PERICENTER":87.9234,"MEAN_ANOMALY":272.216,"EPHEMERIS_TYPE":0,"CLASSIFICATION_TYPE":"U","NORAD_CAT_ID":48998,"ELEMENT_SET_NO":999,"REV_AT_EPOCH":20859,"BSTAR":-0.00010934,"MEAN_MOTION_DOT":-2.9e-7,"MEAN_MOTION_DDOT":0},{"OBJECT_NAME":"ONEWEB-0281","OBJECT_ID":"2021-060AJ","EPOCH":"2025-10-24T16:53:24.711072","MEAN_MOTION":13.16592497,"ECCENTRICITY":0.0001774,"INCLINATION":87.8982,"RA_OF_ASC_NODE":275.679,"ARG_OF_PERICENTER":86.5865,"MEAN_ANOMALY":273.5469,"EPHEMERIS_TYPE":0,"CLASSIFICATION_TYPE":"U","NORAD_CAT_ID":48999,"ELEMENT_SET_NO":999,"REV_AT_EPOCH":20864,"BSTAR":4.0512e-6,"MEAN_MOTION_DOT":1.4e-7,"MEAN_MOTION_DDOT":0},{"OBJECT_NAME":"ONEWEB-0282","OBJECT_ID":"2021-060AK","EPOCH":"2025-10-24T12:08:26.977920","MEAN_MOTION":13.16594023,"ECCENTRICITY":0.0001997,"INCLINATION":87.8983,"RA_OF_ASC_NODE":275.7295,"ARG_OF_PERICENTER":90.6151,"MEAN_ANOMALY":269.5208,"EPHEMERIS_TYPE":0,"CLASSIFICATION_TYPE":"U","NORAD_CAT_ID":49000,"ELEMENT_SET_NO":999,"REV_AT_EPOCH":20859,"BSTAR":-1.5786e-5,"MEAN_MOTION_DOT":7.0e-8,"MEAN_MOTION_DDOT":0},{"OBJECT_NAME":"ONEWEB-0283","OBJECT_ID":"2021-060AL","EPOCH":"2025-10-24T20:59:38.586624","MEAN_MOTION":13.16592896,"ECCENTRICITY":0.0001879,"INCLINATION":87.8983,"RA_OF_ASC_NODE":275.6566,"ARG_OF_PERICENTER":91.2263,"MEAN_ANOMALY":268.9083,"EPHEMERIS_TYPE":0,"CLASSIFICATION_TYPE":"U","NORAD_CAT_ID":49001,"ELEMENT_SET_NO":999,"REV_AT_EPOCH":20865,"BSTAR":-3.6256e-5,"MEAN_MOTION_DOT":-1.0e-8,"MEAN_MOTION_DDOT":0},{"OBJECT_NAME":"ONEWEB-0284","OBJECT_ID":"2021-060AM","EPOCH":"2025-10-24T20:50:32.701056","MEAN_MOTION":13.16593925,"ECCENTRICITY":0.0002257,"INCLINATION":87.8993,"RA_OF_ASC_NODE":275.6434,"ARG_OF_PERICENTER":83.5733,"MEAN_ANOMALY":276.5655,"EPHEMERIS_TYPE":0,"CLASSIFICATION_TYPE":"U","NORAD_CAT_ID":49002,"ELEMENT_SET_NO":999,"REV_AT_EPOCH":20863,"BSTAR":0.00012153,"MEAN_MOTION_DOT":5.9e-7,"MEAN_MOTION_DDOT":0},{"OBJECT_NAME":"ONEWEB-0285","OBJECT_ID":"2021-075A","EPOCH":"2025-10-24T19:01:04.836576","MEAN_MOTION":13.12444517,"ECCENTRICITY":0.0001802,"INCLINATION":87.8968,"RA_OF_ASC_NODE":37.42,"ARG_OF_PERICENTER":102.325,"MEAN_ANOMALY":257.8081,"EPHEMERIS_TYPE":0,"CLASSIFICATION_TYPE":"U","NORAD_CAT_ID":49075,"ELEMENT_SET_NO":999,"REV_AT_EPOCH":20433,"BSTAR":0.00024357,"MEAN_MOTION_DOT":1.0e-6,"MEAN_MOTION_DDOT":0},{"OBJECT_NAME":"ONEWEB-0286","OBJECT_ID":"2021-075B","EPOCH":"2025-10-24T18:34:59.969280","MEAN_MOTION":13.12443096,"ECCENTRICITY":0.000157,"INCLINATION":87.8963,"RA_OF_ASC_NODE":37.4592,"ARG_OF_PERICENTER":96.7656,"MEAN_ANOMALY":263.3651,"EPHEMERIS_TYPE":0,"CLASSIFICATION_TYPE":"U","NORAD_CAT_ID":49076,"ELEMENT_SET_NO":999,"REV_AT_EPOCH":20368,"BSTAR":-0.0012085,"MEAN_MOTION_DOT":-4.22e-6,"MEAN_MOTION_DDOT":0},{"OBJECT_NAME":"ONEWEB-0287","OBJECT_ID":"2021-075C","EPOCH":"2025-10-24T20:10:14.829888","MEAN_MOTION":13.17646168,"ECCENTRICITY":0.0001589,"INCLINATION":87.9123,"RA_OF_ASC_NODE":52.6625,"ARG_OF_PERICENTER":84.6744,"MEAN_ANOMALY":275.4569,"EPHEMERIS_TYPE":0,"CLASSIFICATION_TYPE":"U","NORAD_CAT_ID":49077,"ELEMENT_SET_NO":999,"REV_AT_EPOCH":20263,"BSTAR":-7.8296e-6,"MEAN_MOTION_DOT":1.0e-7,"MEAN_MOTION_DDOT":0},{"OBJECT_NAME":"ONEWEB-0288","OBJECT_ID":"2021-075D","EPOCH":"2025-10-24T19:49:54.938784","MEAN_MOTION":13.12443631,"ECCENTRICITY":0.000183,"INCLINATION":87.897,"RA_OF_ASC_NODE":37.4086,"ARG_OF_PERICENTER":97.7796,"MEAN_ANOMALY":262.354,"EPHEMERIS_TYPE":0,"CLASSIFICATION_TYPE":"U","NORAD_CAT_ID":49078,"ELEMENT_SET_NO":999,"REV_AT_EPOCH":20431,"BSTAR":0.00024465,"MEAN_MOTION_DOT":1.01e-6,"MEAN_MOTION_DDOT":0},{"OBJECT_NAME":"ONEWEB-0289","OBJECT_ID":"2021-075E","EPOCH":"2025-10-24T19:16:37.629120","MEAN_MOTION":13.17648787,"ECCENTRICITY":0.000211,"INCLINATION":87.9111,"RA_OF_ASC_NODE":52.6903,"ARG_OF_PERICENTER":98.2492,"MEAN_ANOMALY":261.8878,"EPHEMERIS_TYPE":0,"CLASSIFICATION_TYPE":"U","NORAD_CAT_ID":49079,"ELEMENT_SET_NO":999,"REV_AT_EPOCH":20320,"BSTAR":0.00012801,"MEAN_MOTION_DOT":6.3e-7,"MEAN_MOTION_DDOT":0}]
